[{"OBJECT_NAME":"STARLINK-3711","OBJECT_ID":"2022-029AV","EPOCH":"2026-03-09T23:28:15.759552","MEAN_MOTION":15.14150134,"ECCENTRICITY":6.042e-5,"INCLINATION":53.2142,"RA_OF_ASC_NODE":66.1332,"ARG_OF_PERICENTER":49.6209,"MEAN_ANOMALY":310.4839,"EPHEMERIS_TYPE":0,"CLASSIFICATION_TYPE":"U","NORAD_CAT_ID":52131,"ELEMENT_SET_NO":999,"REV_AT_EPOCH":22100,"BSTAR":0.0018381126,"MEAN_MOTION_DOT":0.00033758,"MEAN_MOTION_DDOT":0},{"OBJECT_NAME":"LEGION 3","OBJECT_ID":"2024-146A","EPOCH":"2026-03-09T21:00:06.623424","MEAN_MOTION":15.16154835,"ECCENTRICITY":0.00135587,"INCLINATION":45.0003,"RA_OF_ASC_NODE":202.9187,"ARG_OF_PERICENTER":321.2712,"MEAN_ANOMALY":38.7194,"EPHEMERIS_TYPE":0,"CLASSIFICATION_TYPE":"U","NORAD_CAT_ID":60452,"ELEMENT_SET_NO":999,"REV_AT_EPOCH":8695,"BSTAR":0.00032920336,"MEAN_MOTION_DOT":6.211e-5,"MEAN_MOTION_DDOT":0}]
